SHIYAN-1 (SY-1)         
1 28220U 04012A   26068.73650539  .00016393  00000+0  54854-3 0  9991
2 28220  97.8764 140.5238 0005873  23.6952 336.4557 15.31043463195862
STARLINK-31296          
1 58879U 24020D   26068.88423204  .00036654  00000+0  12469-2 0  9995
2 58879  53.1600 295.7482 0001374  95.0661 265.0496 15.30115201118464
